GOES 1 (SMS-C)          
1 08366U 75100A   24360.29786602 -.00000180  00000+0  00000+0 0  9999
2 08366   5.9814 284.1524 0005095 331.4329 221.3053  1.00295988179669
GOES 2                  
1 10061U 77048A   24359.96580639  .00000121  00000+0  00000+0 0  9995
2 10061   7.7032 297.9495 0012389  33.8449 152.4847  0.99395646 40914
GOES 3                  
1 10953U 78062A   24360.58576534 -.00000289  00000+0  00000+0 0  9997
2 10953   8.1222 303.2634 0002067 302.1440 200.7384  0.99364917123182
GOES 4                  
1 11964U 80074A   24360.58356791 -.00000273  00000+0  00000+0 0  9990
2 11964   9.1593 307.0679 0030409  94.7932  37.0302  0.99232487122095
GOES 5                  
1 12472U 81049A   24360.43722247 -.00000104  00000+0  00000+0 0  9998
2 12472  10.3271 319.2904 0003976 295.6380 254.3899  1.00339863117448
GOES 6                  
1 14050U 83041A   24360.42998844 -.00000179  00000+0  00000+0 0  9995
2 14050  11.0540 324.8051 0003196 245.0713 309.6277  1.00318783210612
GOES 7                  
1 17561U 87022A   24360.47544993 -.00000150  00000+0  00000+0 0  9994
2 17561  13.4183 341.4549 0001370  14.4725 359.8355  0.99890321121582
GOES 8                  
1 23051U 94022A   24360.41472039 -.00000271  00000+0  00000+0 0  9992
2 23051  13.9661  17.6719 0001360  23.4640 346.7555  0.98907512118803
GOES 9                  
1 23581U 95025A   24360.11258534  .00000052  00000+0  00000+0 0  9999
2 23581  13.4797  18.3665 0006460 183.4165 354.9553  0.98797596107434
GOES 10                 
1 24786U 97019A   24359.78987552 -.00000040  00000+0  00000+0 0  9990
2 24786  12.4871  24.8556 0031364 224.7819 220.7427  0.99122098100726
GOES 11                 
1 26352U 00022A   24359.75258549  .00000074  00000+0  00000+0 0  9999
2 26352  10.6537  51.5225 0006047 217.1499 144.4318  0.99040443 47135
GOES 12                 
1 26871U 01031A   24360.08339346 -.00000054  00000+0  00000+0 0  9998
2 26871  11.1974  41.6585 0007171 277.4257  79.6733  0.99135209 85419
EWS-G1 (GOES 13)        
1 29155U 06018A   24360.17696384 -.00000024  00000+0  00000+0 0  9991
2 29155   3.1259  83.0037 0064764 257.7359 203.7057  0.98831801 37923
GOES 14                 
1 35491U 09033A   24360.50750885 -.00000040  00000+0  00000+0 0  9993
2 35491   0.2841  91.0217 0002463 135.4665 302.3599  1.00274423  1199
EWS-G2 (GOES 15)        
1 36411U 10008A   24360.54121852  .00000065  00000+0  00000+0 0  9996
2 36411   0.1052 270.1252 0006221 348.1804  92.4585  1.00272066 54234
GOES 16                 
1 41866U 16071A   24360.44269595 -.00000221  00000+0  00000+0 0  9993
2 41866   0.0436 226.7230 0001478  96.7681 215.1332  1.00271758 29705
GOES 17                 
1 43226U 18022A   24360.50829080 -.00000063  00000+0  00000+0 0  9995
2 43226   0.0377 154.8975 0003316 110.0121 267.8943  1.00271911 25024
GOES 18                 
1 51850U 22021A   24359.42522575  .00000121  00000+0  00000+0 0  9993
2 51850   0.0283 143.6992 0000461 188.3196 137.4916  1.00272132  1184
GOES 19                 
1 60133U 24119A   24360.35188428 -.00000156  00000+0  00000+0 0  9995
2 60133   0.0421 225.3372 0001267  98.6904 167.5654  1.00272958  1568
